ONEWEB-0326             
1 49195U 21083K   24046.30287589  .00000154  00000+0  35701-3 0  9998
2 49195  87.9244 145.2021 0001793 126.8781 233.2516 13.18684978117592
ONEWEB-0327             
1 49196U 21083L   24046.80792791 -.00000007  00000+0 -50993-4 0  9990
2 49196  87.9244 145.1137 0001921 119.9019 240.2304 13.18685038118963
ONEWEB-0328             
1 49197U 21083M   24046.71796342 -.00000280  00000+0 -80289-3 0  9990
2 49197  87.8986 129.9345 0001689 108.7401 251.3911 13.13470679120282
ONEWEB-0331             
1 49198U 21083N   24046.29655910  .00000079  00000+0  16834-3 0  9998
2 49198  87.9243 145.1958 0001685 112.7881 247.3429 13.18684741117606
ONEWEB-0333             
1 49199U 21083P   24046.78937095 -.00000339  00000+0 -96299-3 0  9994
2 49199  87.9000 129.9334 0001992 101.7761 258.3592 13.13468161120307
ONEWEB-0334             
1 49200U 21083Q   24046.54405197 -.00000006  00000+0 -47166-4 0  9995
2 49200  87.9132  84.1944 0002727  88.3887 271.7558 13.20770649124244
ONEWEB-0335             
1 49201U 21083R   24046.78464173  .00000869  00000+0  23446-2 0  9999
2 49201  87.9000 129.9230 0001626 105.4927 254.6382 13.13463576120317
ONEWEB-0336             
1 49202U 21083S   24046.75447065  .00000320  00000+0  84157-3 0  9997
2 49202  87.8998 129.9266 0002021 105.0133 255.1220 13.13470145120314
ONEWEB-0337             
1 49203U 21083T   24046.61150445  .00000139  00000+0  34621-3 0  9995
2 49203  87.8998 129.9536 0001664 105.9478 254.1834 13.13468819118994
ONEWEB-0338             
1 49204U 21083U   24046.55036678 -.00000027  00000+0 -97794-4 0  9999
2 49204  87.9138  84.1696 0002147  83.5026 276.6352 13.20770207124264
ONEWEB-0339             
1 49205U 21083V   24046.77509982  .00000001  00000+0 -32320-4 0  9992
2 49205  87.8996 129.9187 0001687 103.2819 256.8498 13.13469550120295
ONEWEB-0340             
1 49206U 21083W   24046.81346792  .00000138  00000+0  31704-3 0  9990
2 49206  87.9244 145.0871 0001716 110.8866 249.2450 13.18684396118924
ONEWEB-0341             
1 49207U 21083X   24046.82138366  .00000009  00000+0 -10913-4 0  9996
2 49207  87.9242 145.1009 0001085  94.1011 266.0245 13.18686136118947
ONEWEB-0342             
1 49208U 21083Y   24046.55667865 -.00000010  00000+0 -57082-4 0  9999
2 49208  87.9130  84.1887 0002061  90.1702 269.9667 13.20770506124235
ONEWEB-0343             
1 49209U 21083Z   24046.28551075  .00000094  00000+0  20583-3 0  9990
2 49209  87.9236 145.2214 0001283  89.2520 270.8759 13.18686993117630
ONEWEB-0344             
1 49210U 21083AA  24046.58941648  .00000046  00000+0  91050-4 0  9999
2 49210  87.8999 129.9692 0001746 113.1543 246.9770 13.13469953118977
ONEWEB-0345             
1 49211U 21083AB  24046.60686377  .00000327  00000+0  86072-3 0  9997
2 49211  87.8996 129.9447 0001291 116.0672 244.0591 13.13471946118989
ONEWEB-0346             
1 49212U 21083AC  24046.29497716  .00000109  00000+0  24312-3 0  9997
2 49212  87.9242 145.2133 0001784 122.4378 237.6927 13.18686030117571
ONEWEB-0348             
1 49213U 21083AD  24046.54720592  .00000014  00000+0  29691-5 0  9999
2 49213  87.9138  84.1513 0001384 113.5627 246.5652 13.20770112124269
ONEWEB-0350             
1 49214U 21083AE  24046.76875448  .00000193  00000+0  49293-3 0  9991
2 49214  87.8997 129.9040 0001442 111.3833 248.7450 13.13469846120330
ONEWEB-0351             
1 49215U 21083AF  24046.54089720 -.00000008  00000+0 -51156-4 0  9997
2 49215  87.9136  84.1570 0002014  83.2231 276.9132 13.20770321124225
ONEWEB-0352             
1 49216U 21083AG  24046.74971207  .00000356  00000+0  94101-3 0  9990
2 49216  87.8997 129.9349 0001889  97.3095 262.8248 13.13471010120420
ONEWEB-0354             
1 49217U 21083AH  24046.79341453  .00000117  00000+0  25647-3 0  9994
2 49217  87.9136  84.0871 0001573  90.5168 269.6146 13.20770727125606
ONEWEB-0355             
1 49218U 21083AJ  24046.24661497 -.00000171  00000+0 -50237-3 0  9993
2 49218  87.8998 130.0342 0001696 100.2591 259.8730 13.13470728118930
ONEWEB-0357             
1 49219U 21083AK  24046.79025515  .00000059  00000+0  11339-3 0  9992
2 49219  87.9133  84.1101 0001784  95.8520 264.2817 13.20770207125593
ONEWEB-0332             
1 49279U 21090A   24046.54720203 -.00000529  00000+0 -14611-2 0  9994
2 49279  87.8930  99.4382 0002296  95.4336 264.7055 13.14502799115560
ONEWEB-0347             
1 49280U 21090B   24046.55351538 -.00000093  00000+0 -26109-3 0  9990
2 49280  87.9136  84.1533 0002417  91.7981 268.3429 13.20768911118497
ONEWEB-0349             
1 49281U 21090C   24046.58508754  .00000046  00000+0  80804-4 0  9997
2 49281  87.9140  84.1445 0001623  99.0316 261.1001 13.20770711117280
ONEWEB-0353             
1 49282U 21090D   24046.69150800 -.00000024  00000+0 -10012-3 0  9996
2 49282  87.8930  99.3937 0002233  95.4542 264.6842 13.14503475116879
ONEWEB-0356             
1 49283U 21090E   24046.81078201  .00000169  00000+0  38291-3 0  9992
2 49283  87.9138  84.0954 0002381 119.1009 241.0363 13.20770303118600
ONEWEB-0358             
1 49284U 21090F   24046.61349604  .00000014  00000+0  23895-5 0  9994
2 49284  87.9140  84.1200 0001740 105.6501 254.4825 13.20770109118014
ONEWEB-0359             
1 49285U 21090G   24046.61035670 -.00000252  00000+0 -65251-3 0  9996
2 49285  87.9138  84.1408 0001381  94.1455 265.9837 13.20763499119276
ONEWEB-0360             
1 49286U 21090H   24046.60087178  .00000090  00000+0  18975-3 0  9995
2 49286  87.9138  84.1472 0001789  93.8182 266.3156 13.20770303117306
ONEWEB-0361             
1 49287U 21090J   24046.80920337  .00000152  00000+0  34153-3 0  9996
2 49287  87.9136  84.0997 0001995  99.1925 260.9434 13.20770717118612
ONEWEB-0362             
1 49288U 21090K   24046.69320454 -.00000004  00000+0 -43151-4 0  9995
2 49288  87.9171 114.6899 0001800  90.0558 270.0781 13.19723693115297
ONEWEB-0363             
1 49289U 21090L   24046.59771743  .00000052  00000+0  96339-4 0  9993
2 49289  87.9137  84.1371 0001988 109.3208 250.8140 13.20770143117762
ONEWEB-0364             
1 49290U 21090M   24046.63559262 -.00000021  00000+0 -83707-4 0  9993
2 49290  87.9139  84.1530 0002122  94.0021 266.1355 13.20770301119729
ONEWEB-0365             
1 49291U 21090N   24046.55104803  .00000008  00000+0 -13613-4 0  9995
2 49291  87.9165 114.7067 0001926  96.9253 263.2099 13.19724205113966
ONEWEB-0366             
1 49292U 21090P   24046.61222119  .00000037  00000+0  64607-4 0  9994
2 49292  87.8932  99.4175 0002113 100.0410 260.0958 13.14503625115550
ONEWEB-0367             
1 49293U 21090Q   24046.36886541  .00000027  00000+0  33408-4 0  9996
2 49293  87.9138  84.1772 0002199  95.2002 264.9382 13.20770713118558
ONEWEB-0368             
1 49294U 21090R   24046.64506237  .00000016  00000+0  78040-5 0  9999
2 49294  87.9139  84.1512 0002749 104.2079 255.9360 13.20770083119746
ONEWEB-0369             
1 49295U 21090S   24046.24304140  .00000027  00000+0  35228-4 0  9997
2 49295  87.9172 114.7625 0002073  98.9965 261.1402 13.19724210113910
ONEWEB-0370             
1 49296U 21090T   24046.60560662 -.00000001  00000+0 -34919-4 0  9991
2 49296  87.9139  84.1340 0001921  96.8439 263.2913 13.20770170118623
ONEWEB-0371             
1 49297U 21090U   24046.55420593 -.00000028  00000+0 -10252-3 0  9996
2 49297  87.9173 114.6906 0001959  96.6858 263.4498 13.19724655113993
ONEWEB-0372             
1 49298U 21090V   24046.59442479  .00000098  00000+0  20840-3 0  9997
2 49298  87.9138  84.1441 0002053  91.7027 268.4341 13.20770742118593
ONEWEB-0373             
1 49299U 21090W   24046.62138762 -.00000024  00000+0 -91301-4 0  9991
2 49299  87.9138  84.1566 0002213 101.3101 258.8281 13.20769845119781
ONEWEB-0374             
1 49300U 21090X   24046.59953389  .00000220  00000+0  55841-3 0  9994
2 49300  87.8930  99.4067 0002058 100.6457 259.4904 13.14503946115552
ONEWEB-0375             
1 49301U 21090Y   24046.60876167  .00000025  00000+0  28356-4 0  9990
2 49301  87.9140  84.1345 0001915 118.7873 241.3453 13.20770071119274
ONEWEB-0376             
1 49302U 21090Z   24046.24936212 -.00000014  00000+0 -67548-4 0  9995
2 49302  87.9165 114.7677 0002102  94.2482 265.8891 13.19725063113958
ONEWEB-0377             
1 49303U 21090AA  24046.67045278  .00000080  00000+0  16484-3 0  9999
2 49303  87.9138  84.1134 0001648  95.5239 264.6082 13.20769973119264
ONEWEB-0378             
1 49304U 21090AB  24046.57009342  .00000010  00000+0 -80731-5 0  9993
2 49304  87.9140  84.1479 0002165 101.4514 258.6863 13.20770355117239
ONEWEB-0379             
1 49305U 21090AC  24046.59478753  .00000242  00000+0  61871-3 0  9990
2 49305  87.8930  99.4099 0002036 100.1164 260.0196 13.14502912115551
ONEWEB-0380             
1 49306U 21090AD  24046.54946965  .00000009  00000+0 -96842-5 0  9991
2 49306  87.9172 114.7046 0001814 102.2206 257.9130 13.19725286113969
ONEWEB-0381             
1 49307U 21090AE  24046.59140527  .00000042  00000+0  70627-4 0  9995
2 49307  87.9142  84.1355 0001839  96.8320 263.3022 13.20770425117289
ONEWEB-0382             
1 49308U 21090AF  24046.80604709  .00000166  00000+0  37537-3 0  9996
2 49308  87.9136  84.0905 0002135 109.3999 250.7365 13.20771238118616
ONEWEB-0383             
1 49309U 21090AG  24046.66455707  .00000204  00000+0  51613-3 0  9997
2 49309  87.8927  99.3871 0002174 103.0423 257.0950 13.14501960116884
ONEWEB-0384             
1 49310U 21090AH  24046.57561739  .00000056  00000+0  10609-3 0  9997
2 49310  87.9139  84.1460 0002187 112.2151 247.9215 13.20770206117287
ONEWEB-0385             
1 49311U 21090AJ  24046.57088200 -.00000009  00000+0 -53097-4 0  9994
2 49311  87.9139  84.1486 0001968 107.5704 252.5644 13.20770345117252
ONEWEB-0386             
1 49312U 21090AK  24046.58824036  .00000075  00000+0  15159-3 0  9998
2 49312  87.9133  84.1481 0002099 103.7728 256.3639 13.20770363117270
